IRIDIUM 7               
1 24793U 97020B   24256.58087595  .00001872  00000+0  64559-3 0  9998
2 24793  86.3923 293.2288 0002042  86.8416 273.3014 14.35419335432066
IRIDIUM 4               
1 24796U 97020E   24256.60101177  .00001770  00000+0  59879-3 0  9993
2 24796  86.3914 290.2776 0002273  88.4369 271.7088 14.36344883432642
IRIDIUM 914             
1 24836U 97030A   24256.67459052  .00002194  00000+0  68733-3 0  9994
2 24836  86.3909 299.6828 0003779  76.3744 283.7875 14.40241207567172
IRIDIUM 16              
1 24841U 97030F   24256.70912096  .00002340  00000+0  76553-3 0  9998
2 24841  86.4054 321.8807 0000616 175.4834 184.6369 14.38139666427111
IRIDIUM 911             
1 24842U 97030G   24256.73426828  .00003655  00000+0  10023-2 0  9994
2 24842  86.4480 320.9179 0012354 307.8744  52.1341 14.46852307434952
